NORAD_CAT_ID,OBJECT_NAME,OBJECT_TYPE,EPOCH,MEAN_MOTION,ECCENTRICITY,INCLINATION,RA_OF_ASC_NODE,ARG_OF_PERICENTER,MEAN_ANOMALY,BSTAR,MEAN_MOTION_DOT,MEAN_MOTION_DDOT,TLE_LINE0,TLE_LINE1,TLE_LINE2,SEMIMAJOR_AXIS,PERIOD,APOGEE,PERIGEE,DECAYED
52263.0,STARLINK-3786,PAYLOAD,2023-03-07 02:58:35,15.08840524,9.56e-05,53.2152,0.7792,88.8604,271.2498,0.00074472,0.00011584,0.0,0 STARLINK-3786,1 52263U 22041C   23066.12401960  .00011584  00000-0  74472-3 0  9993,2 52263  53.2152   0.7792 0000956  88.8604 271.2498 15.08840524 49729,6917.879,95.438,540.405,539.082,0.0
52263.0,STARLINK-3786,PAYLOAD,2023-03-07 18:52:26,15.08827354,0.0001408,53.2154,357.8075,66.3425,293.7714,0.00067493,0.00010466,0.0,0 STARLINK-3786,1 52263U 22041C   23066.78642335  .00010466  00000-0  67493-3 0  9991,2 52263  53.2154 357.8075 0001408  66.3425 293.7714 15.08827354 49823,6917.919,95.438,540.758,538.81,0.0
52263.0,STARLINK-3786,PAYLOAD,2023-03-08 04:24:45,15.08864985,0.000118,53.2157,356.0175,106.8959,253.2162,0.0017077,0.00027013,0.0,0 STARLINK-3786,1 52263U 22041C   23067.18385605  .00027013  00000-0  17077-2 0  9998,2 52263  53.2157 356.0175 0001180 106.8959 253.2162 15.08864985 49882,6917.804,95.436,540.485,538.853,0.0
52263.0,STARLINK-3786,PAYLOAD,2023-03-08 18:43:13,15.08840743,0.000146,53.2151,353.3483,81.9531,278.1627,0.00025692,3.803e-05,0.0,0 STARLINK-3786,1 52263U 22041C   23067.78002230  .00003803  00000-0  25692-3 0  9998,2 52263  53.2151 353.3483 0001460  81.9531 278.1627 15.08840743 49976,6917.878,95.438,540.753,538.733,0.0
52263.0,STARLINK-3786,PAYLOAD,2023-03-09 02:40:09,15.08856904,0.0001377,53.2164,351.8598,92.5067,267.6083,0.0010985,0.00017246,0.0,0 STARLINK-3786,1 52263U 22041C   23068.11122225  .00017246  00000-0  10985-2 0  9997,2 52263  53.2164 351.8598 0001377  92.5067 267.6083 15.08856904 50022,6917.829,95.436,540.646,538.741,0.0
52263.0,STARLINK-3786,PAYLOAD,2023-03-10 00:55:33,15.08857491,0.0001568,53.2164,347.6932,116.286,243.8294,0.0013907,0.00021925,0.0,0 STARLINK-3786,1 52263U 22041C   23069.03858039  .00021925  00000-0  13907-2 0  9994,2 52263  53.2164 347.6932 0001568 116.2860 243.8294 15.08857491 50161,6917.827,95.436,540.777,538.607,0.0
52263.0,STARLINK-3786,PAYLOAD,2023-03-10 04:06:19,15.08878509,0.0001395,53.2167,347.0983,114.1422,245.9716,0.0017031,0.00026949,0.0,0 STARLINK-3786,1 52263U 22041C   23069.17105544  .00026949  00000-0  17031-2 0  9998,2 52263  53.2167 347.0983 0001395 114.1422 245.9716 15.08878509 50180,6917.763,95.435,540.593,538.663,0.0
52263.0,STARLINK-3786,PAYLOAD,2023-03-10 18:24:48,15.08828081,0.0001329,53.217,344.4252,83.9097,276.2047,0.00073265,0.00011388,0.0,0 STARLINK-3786,1 52263U 22041C   23069.76722562  .00011388  00000-0  73265-3 0  9991,2 52263  53.2170 344.4252 0001329  83.9097 276.2047 15.08828081 50276,6917.917,95.438,540.701,538.862,0.0
52263.0,STARLINK-3786,PAYLOAD,2023-03-10 21:35:34,15.08844715,0.0001135,53.2153,343.8314,85.3753,274.7369,0.00068952,0.00010704,0.0,0 STARLINK-3786,1 52263U 22041C   23069.89970335  .00010704  00000-0  68952-3 0  9996,2 52263  53.2153 343.8314 0001135  85.3753 274.7369 15.08844715 49088,6917.866,95.437,540.516,538.946,0.0
52263.0,STARLINK-3786,PAYLOAD,2023-03-11 00:46:20,15.08854561,0.000136,53.2168,343.2362,89.0504,271.0644,0.0019978,0.00031663,0.0,0 STARLINK-3786,1 52263U 22041C   23070.03218319  .00031663  00000-0  19978-2 0  9991,2 52263  53.2168 343.2362 0001360  89.0504 271.0644 15.08854561 50310,6917.836,95.437,540.642,538.76,0.0
52263.0,STARLINK-3786,PAYLOAD,2023-03-11 23:01:45,15.088467,0.0001499,53.2167,339.072,127.6194,232.4934,0.0015863,0.00025053,0.0,0 STARLINK-3786,1 52263U 22041C   23070.95955022  .00025053  00000-0  15863-2 0  9996,2 52263  53.2167 339.0720 0001499 127.6194 232.4934 15.08846700 50451,6917.86,95.437,540.762,538.688,0.0
52263.0,STARLINK-3786,PAYLOAD,2023-03-12 00:37:08,15.08839128,0.0001408,53.2163,338.7751,133.9884,226.1225,0.0011105,0.00017429,0.0,0 STARLINK-3786,1 52263U 22041C   23071.02579013  .00017429  00000-0  11105-2 0  9990,2 52263  53.2163 338.7751 0001408 133.9884 226.1225 15.08839128 50463,6917.883,95.438,540.722,538.774,0.0
52263.0,STARLINK-3786,PAYLOAD,2023-03-12 18:06:22,15.08841196,0.0001327,53.2163,335.5032,127.5121,232.5992,0.0005391,8.303e-05,0.0,0 STARLINK-3786,1 52263U 22041C   23071.75443262  .00008303  00000-0  53910-3 0  9998,2 52263  53.2163 335.5032 0001327 127.5121 232.5992 15.08841196 50575,6917.877,95.437,540.66,538.824,0.0
52263.0,STARLINK-3786,PAYLOAD,2023-03-13 03:38:41,15.08868372,0.000119,53.2166,333.7161,94.1226,265.9902,0.0010745,0.00016867,0.0,0 STARLINK-3786,1 52263U 22041C   23072.15186527  .00016867  00000-0  10745-2 0  9993,2 52263  53.2166 333.7161 0001190  94.1226 265.9902 15.08868372 50637,6917.794,95.436,540.482,538.835,0.0
52263.0,STARLINK-3786,PAYLOAD,2023-03-14 00:18:42,15.08829703,0.0001107,53.2172,329.8568,111.299,248.8121,5.4571e-05,5.81e-06,0.0,0 STARLINK-3786,1 52263U 22041C   23073.01299621  .00000581  00000-0  54571-4 0  9992,2 52263  53.2172 329.8568 0001107 111.2990 248.8121 15.08829703 50760,6917.912,95.438,540.543,539.011,0.0
52263.0,STARLINK-3786,PAYLOAD,2023-03-15 01:44:52,15.08883459,0.0001189,53.2158,325.0972,135.2536,224.8552,0.0017474,0.00027665,0.0,0 STARLINK-3786,1 52263U 22041C   23074.07282537  .00027665  00000-0  17474-2 0  9998,2 52263  53.2158 325.0972 0001189 135.2536 224.8552 15.08883459 50921,6917.748,95.435,540.435,538.79,0.0
52263.0,STARLINK-3786,PAYLOAD,2023-03-15 22:24:52,15.08862506,0.0001529,53.2157,321.2293,130.0602,230.0524,0.001571,0.00024818,0.0,0 STARLINK-3786,1 52263U 22041C   23074.93394666  .00024818  00000-0  15710-2 0  9998,2 52263  53.2157 321.2293 0001529 130.0602 230.0524 15.08862506 49846,6917.812,95.436,540.734,538.619,0.0
52263.0,STARLINK-3786,PAYLOAD,2023-03-16 01:35:39,15.0886567,0.0001187,53.2156,320.6347,108.8945,251.2176,0.0017655,0.00027941,0.0,0 STARLINK-3786,1 52263U 22041C   23075.06642612  .00027941  00000-0  17655-2 0  9990,2 52263  53.2156 320.6347 0001187 108.8945 251.2176 15.08865670 51072,6917.802,95.436,540.488,538.846,0.0
52263.0,STARLINK-3786,PAYLOAD,2023-03-16 06:21:48,15.08840009,0.0001269,53.2151,319.7351,139.305,220.8037,0.0021097,0.00033448,0.0,0 STARLINK-3786,1 52263U 22041C   23075.26513910  .00033448  00000-0  21097-2 0  9994,2 52263  53.2151 319.7351 0001269 139.3050 220.8037 15.08840009 51109,6917.88,95.438,540.623,538.867,0.0
52263.0,STARLINK-3786,PAYLOAD,2023-03-16 20:40:18,15.08811671,0.0001527,53.215,317.0696,58.9454,301.1687,0.00098668,0.00015438,0.0,0 STARLINK-3786,1 52263U 22041C   23075.86132556  .00015438  00000-0  98668-3 0  9991,2 52263  53.2150 317.0696 0001527  58.9454 301.1687 15.08811671 51198,6917.967,95.439,540.888,538.776,0.0
52263.0,STARLINK-3786,PAYLOAD,2023-03-16 22:15:41,15.08814906,0.0001437,53.2148,316.771,65.3618,294.7524,0.0011491,0.00018035,0.0,0 STARLINK-3786,1 52263U 22041C   23075.92756597  .00018035  00000-0  11491-2 0  9999,2 52263  53.2148 316.7710 0001437  65.3618 294.7524 15.08814906 49998,6917.957,95.439,540.816,538.828,0.0
52263.0,STARLINK-3786,PAYLOAD,2023-03-17 09:23:24,15.0883101,0.0001548,53.2147,314.6884,62.0239,298.0909,0.0012775,0.00020097,0.0,0 STARLINK-3786,1 52263U 22041C   23076.39125100  .00020097  00000-0  12775-2 0  9998,2 52263  53.2147 314.6884 0001548  62.0239 298.0909 15.08831010 50061,6917.908,95.438,540.844,538.702,0.0
52263.0,STARLINK-3786,PAYLOAD,2023-03-17 22:06:29,15.08851613,0.0001556,53.215,312.3091,62.0116,298.1033,0.001363,0.00021478,0.0,0 STARLINK-3786,1 52263U 22041C   23076.92117027  .00021478  00000-0  13630-2 0  9991,2 52263  53.2150 312.3091 0001556  62.0116 298.1033 15.08851613 50142,6917.845,95.437,540.786,538.633,0.0
52263.0,STARLINK-3786,PAYLOAD,2023-03-18 01:17:15,15.08859123,0.0001583,53.215,311.7145,62.0847,298.0305,0.0014412,0.00022735,0.0,0 STARLINK-3786,1 52263U 22041C   23077.05364851  .00022735  00000-0  14412-2 0  9991,2 52263  53.2150 311.7145 0001583  62.0847 298.0305 15.08859123 51377,6917.822,95.436,540.782,538.592,0.0
52263.0,STARLINK-3786,PAYLOAD,2023-03-18 20:21:52,15.0886716,0.0001596,53.215,308.1456,58.6712,301.4436,0.00071815,0.00011168,0.0,0 STARLINK-3786,1 52263U 22041C   23077.84851909  .00011168  00000-0  71815-3 0  9992,2 52263  53.2150 308.1456 0001596  58.6712 301.4436 15.08867160 51495,6917.797,95.436,540.766,538.558,0.0
52263.0,STARLINK-3786,PAYLOAD,2023-03-18 21:57:14,15.08871076,0.0001661,53.216,307.8466,69.9826,290.1345,0.00075763,0.000118,0.0,0 STARLINK-3786,1 52263U 22041C   23077.91475663  .00011800  00000-0  75763-3 0  9998,2 52263  53.2160 307.8466 0001661  69.9826 290.1345 15.08871076 50298,6917.785,95.436,540.799,538.501,0.0
52263.0,STARLINK-3786,PAYLOAD,2023-03-19 20:12:38,15.08849946,0.0001385,53.2144,303.6836,58.6982,301.4145,4.4884e-05,4.27e-06,0.0,0 STARLINK-3786,1 52263U 22041C   23078.84211413  .00000427  00000-0  44884-4 0  9996,2 52263  53.2144 303.6836 0001385  58.6982 301.4145 15.08849946 51641,6917.85,95.437,540.673,538.757,0.0
52263.0,STARLINK-3786,PAYLOAD,2023-03-19 21:48:01,15.08850224,0.0001492,53.2148,303.3825,66.8889,293.226,5.2125e-05,5.42e-06,0.0,0 STARLINK-3786,1 52263U 22041C   23078.90835375  .00000542  00000-0  52125-4 0  9997,2 52263  53.2148 303.3825 0001492  66.8889 293.2260 15.08850224 50440,6917.849,95.437,540.746,538.682,0.0
52263.0,STARLINK-3786,PAYLOAD,2023-03-20 07:20:20,15.08840696,0.0001793,53.216,301.6032,81.9793,278.1403,-0.00013485,-2.434e-05,0.0,0 STARLINK-3786,1 52263U 22041C   23079.30579704 -.00002434  00000-0 -13485-3 0  9992,2 52263  53.2160 301.6032 0001793  81.9793 278.1403 15.08840696 51715,6917.878,95.438,540.984,538.503,0.0
52263.0,STARLINK-3786,PAYLOAD,2023-03-20 18:28:02,15.08843058,0.000133,53.2156,299.5224,87.2006,272.9139,-8.7118e-05,-1.674e-05,0.0,0 STARLINK-3786,1 52263U 22041C   23079.76947235 -.00001674  00000-0 -87118-4 0  9990,2 52263  53.2156 299.5224 0001330  87.2006 272.9139 15.08843058 50577,6917.871,95.437,540.656,538.816,0.0
